43570,IRIDIUM 166,2018,100.4,860.0,+,86.39,Active,1,LEO,USA,USA,Commercial/Government,Communications,Falcon,1 43570U 18061B   24320.49539620  .00000069  00000+0  17472-4 0  9993,2 43570  86.3927 298.5651 0002312  82.4333 277.7125 14.34214021330451,14.34214021,0.0002312,LEO
43571,IRIDIUM 158,2018,100.4,860.0,+,86.39,Active,1,LEO,USA,USA,Commercial/Government,Communications,Falcon,1 43571U 18061C   24320.81252792  .00000717  00000+0  24909-3 0  9994,2 43571  86.3924 298.4419 0002466  84.3459 275.8017 14.34217274330474,14.34217274,0.0002466,LEO
43572,IRIDIUM 165,2018,100.4,860.0,+,86.39,Active,1,LEO,USA,USA,Commercial/Government,Communications,Falcon,1 43572U 18061D   24320.69835817  .00000069  00000+0  17575-4 0  9998,2 43572  86.3925 298.5253 0002061  86.8937 273.2494 14.34217200330472,14.342172,0.0002061,LEO
43573,IRIDIUM 155,2018,100.4,860.0,+,86.39,Active,1,LEO,USA,USA,Commercial/Government,Communications,Falcon,1 43573U 18061E   24320.79984419  .00000221  00000+0  71859-4 0  9998,2 43573  86.3924 298.3803 0002442  82.6325 277.5148 14.34216330330464,14.3421633,0.0002442,LEO
43574,IRIDIUM 154,2018,100.4,860.0,+,86.39,Active,1,LEO,USA,USA,Commercial/Government,Communications,Falcon,1 43574U 18061F   24320.50173695  .00000413  00000+0  14038-3 0  9992,2 43574  86.3915 298.6111 0002150  92.8141 267.3301 14.34216744330462,14.34216744,0.000215,LEO
43575,IRIDIUM 163,2018,100.4,860.0,+,86.39,Active,1,LEO,USA,USA,Commercial/Government,Communications,Falcon,1 43575U 18061G   24320.69201853  .00000354  00000+0  11941-3 0  9995,2 43575  86.3923 298.4640 0002475  90.4121 269.7358 14.34218201330467,14.34218201,0.0002475,LEO
43576,IRIDIUM 156,2018,100.4,860.0,+,86.39,Active,1,LEO,USA,USA,Commercial/Government,Communications,Falcon,1 43576U 18061H   24320.66664754  .00000742  00000+0  25775-3 0  9997,2 43576  86.3924 298.4811 0002441  79.4874 280.6597 14.34219605330448,14.34219605,0.0002441,LEO
43577,IRIDIUM 164,2018,100.4,860.0,+,86.39,Active,1,LEO,USA,USA,Commercial/Government,Communications,Falcon,1 43577U 18061J   24320.43831049  .00000420  00000+0  14296-3 0  9995,2 43577  86.3930 298.6076 0002083  84.3165 275.8268 14.34214763330464,14.34214763,0.0002083,LEO
